{
  "norad_id": 44751,
  "name": "STARLINK-1046",
  "history": [
    {
      "epoch": "2026-03-28T08:59:22.619904Z",
      "apogee_km": 431.53324640185656,
      "perigee_km": 428.1146968795574,
      "latitude_deg": -1.656727728919338e-05,
      "longitude_deg": 161.2832118504496,
      "height_km": 430.58013785045273,
      "semi_major_axis_km": 6807.960971640707,
      "eccentricity": 0.00025107,
      "inclination_deg": 53.0523,
      "raan_deg": 121.9234,
      "arg_perigee_deg": 274.7122,
      "mean_anomaly_deg": 85.3597,
      "mean_motion_rev_day": 15.45529062
    },
    {
      "epoch": "2026-03-29T02:03:40.016448Z",
      "apogee_km": 431.37102108700583,
      "perigee_km": 428.00523234435695,
      "latitude_deg": -3.846028947033475e-05,
      "longitude_deg": -98.88049187703506,
      "height_km": 430.3483903783517,
      "semi_major_axis_km": 6807.825126715681,
      "eccentricity": 0.0002472,
      "inclination_deg": 53.0526,
      "raan_deg": 118.5333,
      "arg_perigee_deg": 278.0727,
      "mean_anomaly_deg": 81.9998,
      "mean_motion_rev_day": 15.45575322
    },
    {
      "epoch": "2026-03-30T01:20:21.959808Z",
      "apogee_km": 431.10224924680733,
      "perigee_km": 427.79240174774895,
      "latitude_deg": -3.3557937139440536e-05,
      "longitude_deg": -93.63435821487371,
      "height_km": 429.94905620494995,
      "semi_major_axis_km": 6807.584325497278,
      "eccentricity": 0.0002431,
      "inclination_deg": 53.0528,
      "raan_deg": 113.9102,
      "arg_perigee_deg": 283.8031,
      "mean_anomaly_deg": 76.2704,
      "mean_motion_rev_day": 15.45657329
    },
    {
      "epoch": "2026-03-30T05:59:41.792928Z",
      "apogee_km": 431.0525397675756,
      "perigee_km": 427.74938619717705,
      "latitude_deg": -3.63200508722408e-05,
      "longitude_deg": -164.58279302575477,
      "height_km": 429.8689876319105,
      "semi_major_axis_km": 6807.5379629823765,
      "eccentricity": 0.00024261,
      "inclination_deg": 53.0526,
      "raan_deg": 112.9856,
      "arg_perigee_deg": 285.038,
      "mean_anomaly_deg": 75.0357,
      "mean_motion_rev_day": 15.45673119
    },
    {
      "epoch": "2026-03-30T07:32:48.370272Z",
      "apogee_km": 431.02146667236866,
      "perigee_km": 427.7466405943087,
      "latitude_deg": 6.421244958462224e-05,
      "longitude_deg": 171.76774536881305,
      "height_km": 429.845880514248,
      "semi_major_axis_km": 6807.521053633339,
      "eccentricity": 0.00024053,
      "inclination_deg": 53.0524,
      "raan_deg": 112.6772,
      "arg_perigee_deg": 285.3942,
      "mean_anomaly_deg": 74.6799,
      "mean_motion_rev_day": 15.45678878
    },
    {
      "epoch": "2026-03-30T18:24:33.713568Z",
      "apogee_km": 430.8566486657646,
      "perigee_km": 427.64846211609984,
      "latitude_deg": -1.67417274807599e-05,
      "longitude_deg": 6.224844003656812,
      "height_km": 429.670684829503,
      "semi_major_axis_km": 6807.3895553909315,
      "eccentricity": 0.00023564,
      "inclination_deg": 53.0523,
      "raan_deg": 110.5194,
      "arg_perigee_deg": 287.3486,
      "mean_anomaly_deg": 72.7262,
      "mean_motion_rev_day": 15.45723665
    },
    {
      "epoch": "2026-03-31T17:41:07.341792Z",
      "apogee_km": 430.56441870195613,
      "perigee_km": 427.41544178402455,
      "latitude_deg": -2.5148302218680443e-06,
      "longitude_deg": 11.50482667308946,
      "height_km": 429.34567671307593,
      "semi_major_axis_km": 6807.12693024299,
      "eccentricity": 0.0002313,
      "inclination_deg": 53.0519,
      "raan_deg": 105.8954,
      "arg_perigee_deg": 290.0819,
      "mean_anomaly_deg": 69.9938,
      "mean_motion_rev_day": 15.45813119
    },
    {
      "epoch": "2026-04-01T06:05:54.322944Z",
      "apogee_km": 430.1412739302905,
      "perigee_km": 427.23612072267133,
      "latitude_deg": 7.789000898964245e-06,
      "longitude_deg": -177.66540559951304,
      "height_km": 429.2073988503338,
      "semi_major_axis_km": 6806.825697326481,
      "eccentricity": 0.0002134,
      "inclination_deg": 53.0512,
      "raan_deg": 103.4307,
      "arg_perigee_deg": 285.0641,
      "mean_anomaly_deg": 75.0129,
      "mean_motion_rev_day": 15.45915734
    },
    {
      "epoch": "2026-04-02T06:55:19.949376Z",
      "apogee_km": 429.6017908304466,
      "perigee_km": 426.5904410506291,
      "latitude_deg": -7.056335253845126e-06,
      "longitude_deg": 164.02343098848587,
      "height_km": 428.2985266282469,
      "semi_major_axis_km": 6806.233115940538,
      "eccentricity": 0.00022122,
      "inclination_deg": 53.0519,
      "raan_deg": 98.4958,
      "arg_perigee_deg": 297.4418,
      "mean_anomaly_deg": 62.6363,
      "mean_motion_rev_day": 15.4611763
    },
    {
      "epoch": "2026-04-03T06:11:30.337728Z",
      "apogee_km": 429.0086194614996,
      "perigee_km": 426.15566199770547,
      "latitude_deg": 3.173723786357672e-05,
      "longitude_deg": 169.39972912502824,
      "height_km": 427.6930451328667,
      "semi_major_axis_km": 6805.719140729602,
      "eccentricity": 0.0002096,
      "inclination_deg": 53.0521,
      "raan_deg": 93.871,
      "arg_perigee_deg": 303.4014,
      "mean_anomaly_deg": 56.6792,
      "mean_motion_rev_day": 15.4629278
    },
    {
      "epoch": "2026-04-04T08:33:36.007200Z",
      "apogee_km": 428.06395437408446,
      "perigee_km": 425.5548345395209,
      "latitude_deg": 1.3444903107288861e-05,
      "longitude_deg": 127.54578704865253,
      "height_km": 427.0153780049266,
      "semi_major_axis_km": 6804.946394456802,
      "eccentricity": 0.00018436,
      "inclination_deg": 53.0524,
      "raan_deg": 88.6236,
      "arg_perigee_deg": 303.3736,
      "mean_anomaly_deg": 56.7094,
      "mean_motion_rev_day": 15.46556175
    },
    {
      "epoch": "2026-04-05T14:00:03.000384Z",
      "apogee_km": 427.1360409407471,
      "perigee_km": 424.6820936861095,
      "latitude_deg": -4.5470412443166905,
      "longitude_deg": 35.46002499715608,
      "height_km": 426.6593174251681,
      "semi_major_axis_km": 6804.046067313428,
      "eccentricity": 0.00018033,
      "inclination_deg": 53.0506,
      "raan_deg": 82.7697,
      "arg_perigee_deg": 308.0655,
      "mean_anomaly_deg": 46.3616,
      "mean_motion_rev_day": 15.46863151
    },
    {
      "epoch": "2026-04-05T22:00:03.000096Z",
      "apogee_km": 426.8462710942258,
      "perigee_km": 424.7030389228985,
      "latitude_deg": 39.01659975999945,
      "longitude_deg": -45.7466964833852,
      "height_km": 429.4907082500047,
      "semi_major_axis_km": 6803.911655008562,
      "eccentricity": 0.0001575,
      "inclination_deg": 53.051,
      "raan_deg": 81.1763,
      "arg_perigee_deg": 302.8087,
      "mean_anomaly_deg": 108.949,
      "mean_motion_rev_day": 15.46908989
    },
    {
      "epoch": "2026-04-06T05:31:51.768192Z",
      "apogee_km": 426.6924384222975,
      "perigee_km": 424.40993710906605,
      "latitude_deg": 8.650727399545327e-06,
      "longitude_deg": 162.18831450862672,
      "height_km": 425.7527476028204,
      "semi_major_axis_km": 6803.6881877656815,
      "eccentricity": 0.00016774,
      "inclination_deg": 53.0516,
      "raan_deg": 79.6787,
      "arg_perigee_deg": 307.4793,
      "mean_anomaly_deg": 52.6061,
      "mean_motion_rev_day": 15.46985202
    },
    {
      "epoch": "2026-04-07T16:00:01.999584Z",
      "apogee_km": 425.69867073437126,
      "perigee_km": 423.55403156028933,
      "latitude_deg": 52.813096743353114,
      "longitude_deg": 77.22438264522,
      "height_km": 431.8151523958563,
      "semi_major_axis_km": 6802.7633511473305,
      "eccentricity": 0.00015763,
      "inclination_deg": 53.0516,
      "raan_deg": 72.8166,
      "arg_perigee_deg": 309.9745,
      "mean_anomaly_deg": 134.1874,
      "mean_motion_rev_day": 15.47300682
    },
    {
      "epoch": "2026-04-07T22:00:01.999584Z",
      "apogee_km": 425.4861454404954,
      "perigee_km": 423.53378576136765,
      "latitude_deg": 29.24683395715488,
      "longitude_deg": -69.81334949316437,
      "height_km": 426.03377040885783,
      "semi_major_axis_km": 6802.646965600931,
      "eccentricity": 0.0001435,
      "inclination_deg": 53.0515,
      "raan_deg": 71.6214,
      "arg_perigee_deg": 310.1488,
      "mean_anomaly_deg": 87.397,
      "mean_motion_rev_day": 15.47340391
    },
    {
      "epoch": "2026-04-08T14:00:04.999680Z",
      "apogee_km": 425.09797106564565,
      "perigee_km": 423.08287921322244,
      "latitude_deg": 20.80560992340455,
      "longitude_deg": -174.94092067223,
      "height_km": 425.564904316901,
      "semi_major_axis_km": 6802.227425139434,
      "eccentricity": 0.00014812,
      "inclination_deg": 53.0507,
      "raan_deg": 68.4357,
      "arg_perigee_deg": 313.4891,
      "mean_anomaly_deg": 200.1898,
      "mean_motion_rev_day": 15.47483546
    }
  ]
}